*******************************************************************************
Ephemeris / WWW_USER Mon Mar 24 11:56:23 2025 Pasadena, USA      / Horizons    
*******************************************************************************
Target body name: Hale-Bopp (C/1995 O1)           {source: JPL#226}
Center body name: Earth (399)                     {source: DE441}
Center-site name: Gemini South Obs., Cerro Pachon
*******************************************************************************
Start time      : A.D. 2018-Aug-27 22:33:00.0000 UT      
Stop  time      : A.D. 2018-Aug-28 10:54:00.0000 UT      
Step-size       : 1 minutes
*******************************************************************************
Target pole/equ : undefined
Target radii    : 30. km                                                       
Center geodetic : 289.2634, -30.2406227, 2.71233  {E-lon(deg),Lat(deg),Alt(km)}
Center cylindric: 289.2634,5517.21435,-3194.81213 {E-lon(deg),Dxy(km),Dz(km)}
Center pole/equ : ITRF93                          {East-longitude positive}
Center radii    : 6378.137, 6378.137, 6356.752 km {Equator_a, b, pole_c}       
Target primary  : Sun
Vis. interferer : MOON (R_eq= 1737.400) km        {source: DE441}
Rel. light bend : Sun                             {source: DE441}
Rel. lght bnd GM: 1.3271E+11 km^3/s^2                                          
Small-body perts: Yes                             {source: SB441-N16}
Atmos refraction: NO (AIRLESS)
RA format       : HMS
Time format     : CAL 
Calendar mode   : Mixed Julian/Gregorian
RTS-only print  : NO       
EOP file        : eop.250321.p250617                                           
EOP coverage    : DATA-BASED 1962-JAN-20 TO 2025-MAR-21. PREDICTS-> 2025-JUN-16
Units conversion: 1 au= 149597870.700 km, c= 299792.458 km/s, 1 day= 86400.0 s 
Table cut-offs 1: Elevation (-90.0deg=NO ),Airmass (>38.000=NO), Daylight (YES)
Table cut-offs 2: Solar elongation (  0.0,180.0=NO ),Local Hour Angle( 0.0=NO )
Table cut-offs 3: RA/DEC angular rate (     0.0=NO )                           
*******************************************************************************
Initial IAU76/J2000 heliocentric ecliptic osculating elements (au, days, deg.):
  EPOCH=  2459837.5 ! 2022-Sep-15.0000000 (TDB)    RMSW= n.a.                  
   EC= .9949810027633206   QR= .890537663547794    TP= 2450537.1349071441      
   OM= 282.7334213961641   W= 130.4146670659176    IN= 89.28759424740302       
  Equivalent ICRF heliocentric cartesian coordinates (au, au/d):
   X= 3.907631452214869E+00  Y=-1.373895334060347E+00  Z=-4.624358508575312E+01
  VX= 3.778244409519935E-04 VY=-5.803173067116371E-04 VZ=-3.255716412104052E-03
Comet physical (GM= km^3/s^2; RAD= km):                                        
   GM= n.a.                RAD= 30.                                            
   M1=  4.8      M2=  n.a.     k1=  4.     k2= n.a.     PHCOF= n.a.            
*******************************************************************************
 Date__(UT)__HR:MN     R.A._________(ICRF)_________DEC
******************************************************
$$SOE
 2018-Aug-28 02:41  m  23 49 56.367965 -86 38 00.82039
 2018-Aug-28 02:42  m  23 49 56.307899 -86 38 00.84406
 2018-Aug-28 02:43  m  23 49 56.247830 -86 38 00.86773
 2018-Aug-28 02:44  m  23 49 56.187757 -86 38 00.89139
 2018-Aug-28 02:45  m  23 49 56.127680 -86 38 00.91505
 2018-Aug-28 02:46  m  23 49 56.067600 -86 38 00.93871
 2018-Aug-28 02:47  m  23 49 56.007517 -86 38 00.96236
 2018-Aug-28 02:48  m  23 49 55.947429 -86 38 00.98601
 2018-Aug-28 02:49  m  23 49 55.887338 -86 38 01.00966
 2018-Aug-28 02:50  m  23 49 55.827244 -86 38 01.03331
 2018-Aug-28 02:51  m  23 49 55.767146 -86 38 01.05695
 2018-Aug-28 02:52  m  23 49 55.707044 -86 38 01.08059
 2018-Aug-28 02:53  m  23 49 55.646939 -86 38 01.10422
 2018-Aug-28 02:54  m  23 49 55.586831 -86 38 01.12785
 2018-Aug-28 02:55  m  23 49 55.526719 -86 38 01.15148
 2018-Aug-28 02:56  m  23 49 55.466603 -86 38 01.17511
 2018-Aug-28 02:57  m  23 49 55.406484 -86 38 01.19873
 2018-Aug-28 02:58  m  23 49 55.346361 -86 38 01.22235
 2018-Aug-28 02:59  m  23 49 55.286235 -86 38 01.24596
 2018-Aug-28 03:00  m  23 49 55.226106 -86 38 01.26958
 2018-Aug-28 03:01  m  23 49 55.165973 -86 38 01.29319
 2018-Aug-28 03:02  m  23 49 55.105836 -86 38 01.31679
 2018-Aug-28 03:03  m  23 49 55.045696 -86 38 01.34040
 2018-Aug-28 03:04  m  23 49 54.985553 -86 38 01.36400
 2018-Aug-28 03:05  m  23 49 54.925407 -86 38 01.38759
 2018-Aug-28 03:06  m  23 49 54.865257 -86 38 01.41118
 2018-Aug-28 03:07  m  23 49 54.805103 -86 38 01.43477
 2018-Aug-28 03:08  m  23 49 54.744946 -86 38 01.45836
 2018-Aug-28 03:09  m  23 49 54.684786 -86 38 01.48194
 2018-Aug-28 03:10  m  23 49 54.624623 -86 38 01.50552
 2018-Aug-28 03:11  m  23 49 54.564456 -86 38 01.52910
 2018-Aug-28 03:12  m  23 49 54.504286 -86 38 01.55267
 2018-Aug-28 03:13  m  23 49 54.444113 -86 38 01.57624
 2018-Aug-28 03:14  m  23 49 54.383936 -86 38 01.59981
 2018-Aug-28 03:15  m  23 49 54.323756 -86 38 01.62337
 2018-Aug-28 03:16  m  23 49 54.263573 -86 38 01.64693
 2018-Aug-28 03:17  m  23 49 54.203387 -86 38 01.67048
 2018-Aug-28 03:18  m  23 49 54.143197 -86 38 01.69404
 2018-Aug-28 03:19  m  23 49 54.083004 -86 38 01.71758
 2018-Aug-28 03:20  m  23 49 54.022808 -86 38 01.74113
 2018-Aug-28 03:21  m  23 49 53.962609 -86 38 01.76467
 2018-Aug-28 03:22  m  23 49 53.902407 -86 38 01.78821
 2018-Aug-28 03:23  m  23 49 53.842201 -86 38 01.81174
 2018-Aug-28 03:24  m  23 49 53.781993 -86 38 01.83528
 2018-Aug-28 03:25  m  23 49 53.721781 -86 38 01.85880
 2018-Aug-28 03:26  m  23 49 53.661566 -86 38 01.88233
 2018-Aug-28 03:27  m  23 49 53.601348 -86 38 01.90585
 2018-Aug-28 03:28  m  23 49 53.541126 -86 38 01.92936
 2018-Aug-28 03:29  m  23 49 53.480902 -86 38 01.95288
 2018-Aug-28 03:30  m  23 49 53.420675 -86 38 01.97639
 2018-Aug-28 03:31  m  23 49 53.360444 -86 38 01.99989
 2018-Aug-28 03:32  m  23 49 53.300211 -86 38 02.02340
 2018-Aug-28 03:33  m  23 49 53.239974 -86 38 02.04690
 2018-Aug-28 03:34  m  23 49 53.179735 -86 38 02.07039
 2018-Aug-28 03:35  m  23 49 53.119492 -86 38 02.09388
 2018-Aug-28 03:36  m  23 49 53.059247 -86 38 02.11737
 2018-Aug-28 03:37  m  23 49 52.998998 -86 38 02.14086
 2018-Aug-28 03:38  m  23 49 52.938747 -86 38 02.16434
 2018-Aug-28 03:39  m  23 49 52.878493 -86 38 02.18781
 2018-Aug-28 03:40  m  23 49 52.818235 -86 38 02.21129
 2018-Aug-28 03:41  m  23 49 52.757975 -86 38 02.23476
 2018-Aug-28 03:42  m  23 49 52.697712 -86 38 02.25822
 2018-Aug-28 03:43  m  23 49 52.637446 -86 38 02.28169
 2018-Aug-28 03:44  m  23 49 52.577177 -86 38 02.30514
 2018-Aug-28 03:45  m  23 49 52.516905 -86 38 02.32860
 2018-Aug-28 03:46  m  23 49 52.456631 -86 38 02.35205
 2018-Aug-28 03:47  m  23 49 52.396353 -86 38 02.37550
 2018-Aug-28 03:48  m  23 49 52.336073 -86 38 02.39894
 2018-Aug-28 03:49  m  23 49 52.275790 -86 38 02.42238
 2018-Aug-28 03:50  m  23 49 52.215504 -86 38 02.44582
 2018-Aug-28 03:51  m  23 49 52.155215 -86 38 02.46925
 2018-Aug-28 03:52  m  23 49 52.094924 -86 38 02.49268
 2018-Aug-28 03:53  m  23 49 52.034630 -86 38 02.51610
 2018-Aug-28 03:54  m  23 49 51.974333 -86 38 02.53952
 2018-Aug-28 03:55  m  23 49 51.914033 -86 38 02.56294
 2018-Aug-28 03:56  m  23 49 51.853731 -86 38 02.58635
 2018-Aug-28 03:57  m  23 49 51.793426 -86 38 02.60976
 2018-Aug-28 03:58  m  23 49 51.733118 -86 38 02.63317
 2018-Aug-28 03:59  m  23 49 51.672808 -86 38 02.65657
 2018-Aug-28 04:00  m  23 49 51.612495 -86 38 02.67997
 2018-Aug-28 04:01  m  23 49 51.552179 -86 38 02.70336
 2018-Aug-28 04:02  m  23 49 51.491861 -86 38 02.72675
 2018-Aug-28 04:03  m  23 49 51.431540 -86 38 02.75014
 2018-Aug-28 04:04  m  23 49 51.371216 -86 38 02.77352
 2018-Aug-28 04:05  m  23 49 51.310890 -86 38 02.79690
 2018-Aug-28 04:06  m  23 49 51.250562 -86 38 02.82028
 2018-Aug-28 04:07  m  23 49 51.190231 -86 38 02.84365
 2018-Aug-28 04:08  m  23 49 51.129897 -86 38 02.86701
 2018-Aug-28 04:09  m  23 49 51.069561 -86 38 02.89038
 2018-Aug-28 04:10  m  23 49 51.009222 -86 38 02.91374
 2018-Aug-28 04:11  m  23 49 50.948881 -86 38 02.93709
 2018-Aug-28 04:12  m  23 49 50.888538 -86 38 02.96044
 2018-Aug-28 04:13  m  23 49 50.828192 -86 38 02.98379
 2018-Aug-28 04:14  m  23 49 50.767843 -86 38 03.00713
 2018-Aug-28 04:15  m  23 49 50.707492 -86 38 03.03047
 2018-Aug-28 04:16  m  23 49 50.647139 -86 38 03.05381
 2018-Aug-28 04:17  m  23 49 50.586784 -86 38 03.07714
 2018-Aug-28 04:18  m  23 49 50.526426 -86 38 03.10046
 2018-Aug-28 04:19  m  23 49 50.466065 -86 38 03.12379
 2018-Aug-28 04:20  m  23 49 50.405702 -86 38 03.14711
 2018-Aug-28 04:21  m  23 49 50.345337 -86 38 03.17042
 2018-Aug-28 04:22  m  23 49 50.284970 -86 38 03.19373
 2018-Aug-28 04:23  m  23 49 50.224600 -86 38 03.21704
 2018-Aug-28 04:24  m  23 49 50.164229 -86 38 03.24034
 2018-Aug-28 04:25  m  23 49 50.103854 -86 38 03.26364
 2018-Aug-28 04:26  m  23 49 50.043478 -86 38 03.28694
 2018-Aug-28 04:27  m  23 49 49.983099 -86 38 03.31023
 2018-Aug-28 04:28  m  23 49 49.922718 -86 38 03.33352
 2018-Aug-28 04:29  m  23 49 49.862335 -86 38 03.35680
 2018-Aug-28 04:30  m  23 49 49.801950 -86 38 03.38008
 2018-Aug-28 04:31  m  23 49 49.741563 -86 38 03.40335
 2018-Aug-28 04:32  m  23 49 49.681173 -86 38 03.42662
 2018-Aug-28 04:33  m  23 49 49.620781 -86 38 03.44989
 2018-Aug-28 04:34  m  23 49 49.560388 -86 38 03.47315
 2018-Aug-28 04:35  m  23 49 49.499992 -86 38 03.49641
 2018-Aug-28 04:36  m  23 49 49.439594 -86 38 03.51966
 2018-Aug-28 04:37  m  23 49 49.379194 -86 38 03.54291
 2018-Aug-28 04:38  m  23 49 49.318792 -86 38 03.56616
 2018-Aug-28 04:39  m  23 49 49.258387 -86 38 03.58940
 2018-Aug-28 04:40  m  23 49 49.197981 -86 38 03.61264
 2018-Aug-28 04:41  m  23 49 49.137573 -86 38 03.63587
 2018-Aug-28 04:42  m  23 49 49.077163 -86 38 03.65910
 2018-Aug-28 04:43  m  23 49 49.016751 -86 38 03.68233
 2018-Aug-28 04:44  m  23 49 48.956337 -86 38 03.70555
